{
  "type": "FeatureCollection",
  "features": [
    {
      "type": "Feature",
      "properties": {
        "norad_id": 66905,
        "name": "STARLINK-36075",
        "group": "last-30-days",
        "lat": 39.419265045951754,
        "lon": 146.15552054360143,
        "alt_km": 395.2016144559648,
        "timestamp": "2025-12-26T17:24:53.441955+00:00",
        "meta_object_name": "STARLINK-36075",
        "meta_object_id": "2025-283AD",
        "meta_epoch": "2025-12-26T06:00:02.999808",
        "meta_mean_motion": 15.57476751,
        "meta_eccentricity": 0.00011812,
        "meta_inclination": 53.1594,
        "meta_ra_of_asc_node": 6.4984,
        "meta_arg_of_pericenter": 88.3445,
        "meta_mean_anomaly": 252.8046,
        "meta_ephemeris_type": 0,
        "meta_classification_type": "U",
        "meta_norad_cat_id": 66905,
        "meta_element_set_no": 999,
        "meta_rev_at_epoch": 460,
        "meta_bstar": -0.030839802,
        "meta_mean_motion_dot": -0.02059521,
        "meta_mean_motion_ddot": 0,
        "tle_line1": "1 66905U 25283AD  25360.25003472 -.02059521  00000+0 -30840-1 0  9996",
        "tle_line2": "2 66905  53.1594   6.4984 0001181  88.3445 252.8046 15.57476751  4604"
      },
      "geometry": {
        "type": "Point",
        "coordinates": [
          146.15552054360143,
          39.419265045951754
        ]
      }
    },
    {
      "type": "Feature",
      "properties": {
        "norad_id": 66906,
        "name": "1998-067XS",
        "group": "last-30-days",
        "lat": 50.227000811306795,
        "lon": 145.1563260891782,
        "alt_km": 407.69634292951196,
        "timestamp": "2025-12-26T17:24:53.441965+00:00",
        "meta_object_name": "1998-067XS",
        "meta_object_id": "1998-067XS",
        "meta_epoch": "2025-12-26T06:15:17.316576",
        "meta_mean_motion": 15.5130022,
        "meta_eccentricity": 0.00026696,
        "meta_inclination": 51.6322,
        "meta_ra_of_asc_node": 75.3293,
        "meta_arg_of_pericenter": 271.0578,
        "meta_mean_anomaly": 89.0106,
        "meta_ephemeris_type": 0,
        "meta_classification_type": "U",
        "meta_norad_cat_id": 66906,
        "meta_element_set_no": 999,
        "meta_rev_at_epoch": 371,
        "meta_bstar": 0.00043777364,
        "meta_mean_motion_dot": 0.00025789,
        "meta_mean_motion_ddot": 0,
        "tle_line1": "1 66906U 98067XS  25360.26061709  .00025789  00000+0  43777-3 0  9995",
        "tle_line2": "2 66906  51.6322  75.3293 0002669 271.0578  89.0106 15.51300220  3714"
      },
      "geometry": {
        "type": "Point",
        "coordinates": [
          145.1563260891782,
          50.227000811306795
        ]
      }
    },
    {
      "type": "Feature",
      "properties": {
        "norad_id": 66907,
        "name": "1998-067XT",
        "group": "last-30-days",
        "lat": 13.469508980934052,
        "lon": -118.09796859378619,
        "alt_km": 408.34784521232723,
        "timestamp": "2025-12-26T17:24:53.441977+00:00",
        "meta_object_name": "1998-067XT",
        "meta_object_id": "1998-067XT",
        "meta_epoch": "2025-12-24T10:39:56.166048",
        "meta_mean_motion": 15.52879993,
        "meta_eccentricity": 0.00038856,
        "meta_inclination": 51.6313,
        "meta_ra_of_asc_node": 84.2012,
        "meta_arg_of_pericenter": 298.2919,
        "meta_mean_anomaly": 61.7678,
        "meta_ephemeris_type": 0,
        "meta_classification_type": "U",
        "meta_norad_cat_id": 66907,
        "meta_element_set_no": 999,
        "meta_rev_at_epoch": 343,
        "meta_bstar": 0.0010726177,
        "meta_mean_motion_dot": 0.00067981,
        "meta_mean_motion_ddot": 0,
        "tle_line1": "1 66907U 98067XT  25358.44440007  .00067981  00000+0  10726-2 0  9992",
        "tle_line2": "2 66907  51.6313  84.2012 0003885 298.2919  61.7678 15.52879993  3433"
      },
      "geometry": {
        "type": "Point",
        "coordinates": [
          -118.09796859378619,
          13.469508980934052
        ]
      }
    },
    {
      "type": "Feature",
      "properties": {
        "norad_id": 66908,
        "name": "1998-067XU",
        "group": "last-30-days",
        "lat": 8.435826120870118,
        "lon": -113.9156773303203,
        "alt_km": 408.7901014415929,
        "timestamp": "2025-12-26T17:24:53.441987+00:00",
        "meta_object_name": "1998-067XU",
        "meta_object_id": "1998-067XU",
        "meta_epoch": "2025-12-26T05:52:50.075328",
        "meta_mean_motion": 15.53197536,
        "meta_eccentricity": 0.00038191,
        "meta_inclination": 51.6316,
        "meta_ra_of_asc_node": 75.226,
        "meta_arg_of_pericenter": 307.4311,
        "meta_mean_anomaly": 52.6331,
        "meta_ephemeris_type": 0,
        "meta_classification_type": "U",
        "meta_norad_cat_id": 66908,
        "meta_element_set_no": 999,
        "meta_rev_at_epoch": 371,
        "meta_bstar": 0.00091736042,
        "meta_mean_motion_dot": 0.00058677,
        "meta_mean_motion_ddot": 0,
        "tle_line1": "1 66908U 98067XU  25360.24502402  .00058677  00000+0  91736-3 0  9995",
        "tle_line2": "2 66908  51.6316  75.2260 0003819 307.4311  52.6331 15.53197536  3711"
      },
      "geometry": {
        "type": "Point",
        "coordinates": [
          -113.9156773303203,
          8.435826120870118
        ]
      }
    },
    {
      "type": "Feature",
      "properties": {
        "norad_id": 66909,
        "name": "SILVERSAT",
        "group": "last-30-days",
        "lat": 0.20205665981488174,
        "lon": -107.35005434734782,
        "alt_km": 408.9411636457726,
        "timestamp": "2025-12-26T17:24:53.441997+00:00",
        "meta_object_name": "SILVERSAT",
        "meta_object_id": "1998-067XV",
        "meta_epoch": "2025-12-26T05:50:15.051264",
        "meta_mean_motion": 15.5347206,
        "meta_eccentricity": 0.00038112,
        "meta_inclination": 51.6312,
        "meta_ra_of_asc_node": 75.214,
        "meta_arg_of_pericenter": 312.9233,
        "meta_mean_anomaly": 47.1437,
        "meta_ephemeris_type": 0,
        "meta_classification_type": "U",
        "meta_norad_cat_id": 66909,
        "meta_element_set_no": 999,
        "meta_rev_at_epoch": 371,
        "meta_bstar": 0.0010732725,
        "meta_mean_motion_dot": 0.00069517,
        "meta_mean_motion_ddot": 0,
        "tle_line1": "1 66909U 98067XV  25360.24322976  .00069517  00000+0  10733-2 0  9994",
        "tle_line2": "2 66909  51.6312  75.2140 0003811 312.9233  47.1437 15.53472060  3715"
      },
      "geometry": {
        "type": "Point",
        "coordinates": [
          -107.35005434734782,
          0.20205665981488174
        ]
      }
    },
    {
      "type": "Feature",
      "properties": {
        "norad_id": 66910,
        "name": "1998-067XW",
        "group": "last-30-days",
        "lat": -6.621891269129478,
        "lon": -101.93231188276988,
        "alt_km": 408.59663162800007,
        "timestamp": "2025-12-26T17:24:53.442010+00:00",
        "meta_object_name": "1998-067XW",
        "meta_object_id": "1998-067XW",
        "meta_epoch": "2025-12-26T05:47:57.385824",
        "meta_mean_motion": 15.53373617,
        "meta_eccentricity": 0.00037621,
        "meta_inclination": 51.6294,
        "meta_ra_of_asc_node": 75.2017,
        "meta_arg_of_pericenter": 284.0151,
        "meta_mean_anomaly": 76.0421,
        "meta_ephemeris_type": 0,
        "meta_classification_type": "U",
        "meta_norad_cat_id": 66910,
        "meta_element_set_no": 999,
        "meta_rev_at_epoch": 371,
        "meta_bstar": 0.00096718956,
        "meta_mean_motion_dot": 0.00062317,
        "meta_mean_motion_ddot": 0,
        "tle_line1": "1 66910U 98067XW  25360.24163641  .00062317  00000+0  96719-3 0  9998",
        "tle_line2": "2 66910  51.6294  75.2017 0003762 284.0151  76.0421 15.53373617  3714"
      },
      "geometry": {
        "type": "Point",
        "coordinates": [
          -101.93231188276988,
          -6.621891269129478
        ]
      }
    },
    {
      "type": "Feature",
      "properties": {
        "norad_id": 66911,
        "name": "1998-067XX",
        "group": "last-30-days",
        "lat": -25.25956982545185,
        "lon": -85.30770619970554,
        "alt_km": 408.03611567092594,
        "timestamp": "2025-12-26T17:24:53.442022+00:00",
        "meta_object_name": "1998-067XX",
        "meta_object_id": "1998-067XX",
        "meta_epoch": "2025-12-26T05:41:53.748960",
        "meta_mean_motion": 15.53922498,
        "meta_eccentricity": 0.00035122,
        "meta_inclination": 51.63,
        "meta_ra_of_asc_node": 75.1744,
        "meta_arg_of_pericenter": 292.0313,
        "meta_mean_anomaly": 68.0304,
        "meta_ephemeris_type": 0,
        "meta_classification_type": "U",
        "meta_norad_cat_id": 66911,
        "meta_element_set_no": 999,
        "meta_rev_at_epoch": 370,
        "meta_bstar": 0.0011417936,
        "meta_mean_motion_dot": 0.00075265,
        "meta_mean_motion_ddot": 0,
        "tle_line1": "1 66911U 98067XX  25360.23742765  .00075265  00000+0  11418-2 0  9996",
        "tle_line2": "2 66911  51.6300  75.1744 0003512 292.0313  68.0304 15.53922498  3708"
      },
      "geometry": {
        "type": "Point",
        "coordinates": [
          -85.30770619970554,
          -25.25956982545185
        ]
      }
    }
  ]
}